[{"OBJECT_NAME":"ION SCV-010","OBJECT_ID":"2023-054Q","EPOCH":"2026-03-09T16:02:35.904768","MEAN_MOTION":15.25210322,"ECCENTRICITY":0.00127052,"INCLINATION":97.3904,"RA_OF_ASC_NODE":319.4312,"ARG_OF_PERICENTER":188.785,"MEAN_ANOMALY":171.3168,"EPHEMERIS_TYPE":0,"CLASSIFICATION_TYPE":"U","NORAD_CAT_ID":56192,"ELEMENT_SET_NO":999,"REV_AT_EPOCH":16102,"BSTAR":0.00025045068,"MEAN_MOTION_DOT":6.231e-5,"MEAN_MOTION_DDOT":0},{"OBJECT_NAME":"STARLINK-35219","OBJECT_ID":"2025-259X","EPOCH":"2026-03-09T22:20:03.897888","MEAN_MOTION":15.27597707,"ECCENTRICITY":0.00013388,"INCLINATION":43.0001,"RA_OF_ASC_NODE":273.3686,"ARG_OF_PERICENTER":262.6783,"MEAN_ANOMALY":97.3916,"EPHEMERIS_TYPE":0,"CLASSIFICATION_TYPE":"U","NORAD_CAT_ID":66443,"ELEMENT_SET_NO":999,"REV_AT_EPOCH":1941,"BSTAR":0.00093406407,"MEAN_MOTION_DOT":0.00025544,"MEAN_MOTION_DDOT":0}]
